[{"CCSDS_OMM_VERS":"2.0","COMMENT":"GENERATED VIA SPACE-TRACK.ORG API","CREATION_DATE":"2021-01-06T14:36:10","ORIGINATOR":"18 SPCS","OBJECT_NAME":"ONEWEB-0027","OBJECT_ID":"2020-020J","CENTER_NAME":"EARTH","REF_FRAME":"TEME","TIME_SYSTEM":"UTC","MEAN_ELEMENT_THEORY":"SGP4","EPOCH":"2021-01-06T14:00:01.999872","MEAN_MOTION":"14.89702195","ECCENTRICITY":"0.00251980","INCLINATION":"87.5645","RA_OF_ASC_NODE":"47.1374","ARG_OF_PERICENTER":"331.4552","MEAN_ANOMALY":"264.7562","EPHEMERIS_TYPE":"0","CLASSIFICATION_TYPE":"U","NORAD_CAT_ID":"45432","ELEMENT_SET_NO":"999","REV_AT_EPOCH":"4349","BSTAR":"0.00238320000000","MEAN_MOTION_DOT":"0.00023011","MEAN_MOTION_DDOT":"0.0000000000000","SEMIMAJOR_AXIS":"6977.002","PERIOD":"96.663","APOAPSIS":"616.448","PERIAPSIS":"581.286","OBJECT_TYPE":"PAYLOAD","RCS_SIZE":"MEDIUM","COUNTRY_CODE":"UK","LAUNCH_DATE":"2020-03-21","SITE":"TTMTR","DECAY_DATE":null,"FILE":"2917034","GP_ID":"168996224","TLE_LINE0":"0 ONEWEB-0027","TLE_LINE1":"1 45432U 20020J   21006.58335648  .00023011  00000-0  23832-2 0  9990","TLE_LINE2":"2 45432  87.5645  47.1374 0025198 331.4552 264.7562 14.89702195 43497"},{"CCSDS_OMM_VERS":"2.0","COMMENT":"GENERATED VIA SPACE-TRACK.ORG API","CREATION_DATE":"2021-01-07T03:30:26","ORIGINATOR":"18 SPCS","OBJECT_NAME":"ONEWEB-0027","OBJECT_ID":"2020-020J","CENTER_NAME":"EARTH","REF_FRAME":"TEME","TIME_SYSTEM":"UTC","MEAN_ELEMENT_THEORY":"SGP4","EPOCH":"2021-01-06T22:00:00.999936","MEAN_MOTION":"14.89681772","ECCENTRICITY":"0.00250740","INCLINATION":"87.5645","RA_OF_ASC_NODE":"47.0357","ARG_OF_PERICENTER":"330.2647","MEAN_ANOMALY":"252.3446","EPHEMERIS_TYPE":"0","CLASSIFICATION_TYPE":"U","NORAD_CAT_ID":"45432","ELEMENT_SET_NO":"999","REV_AT_EPOCH":"177","BSTAR":"0.00435900000000","MEAN_MOTION_DOT":"0.00042156","MEAN_MOTION_DDOT":"0.0000000000000","SEMIMAJOR_AXIS":"6977.066","PERIOD":"96.664","APOAPSIS":"616.425","PERIAPSIS":"581.436","OBJECT_TYPE":"PAYLOAD","RCS_SIZE":"MEDIUM","COUNTRY_CODE":"UK","LAUNCH_DATE":"2020-03-21","SITE":"TTMTR","DECAY_DATE":null,"FILE":"2917408","GP_ID":"169045530","TLE_LINE0":"0 ONEWEB-0027","TLE_LINE1":"1 45432U 20020J   21006.91667824  .00042156  00000-0  43590-2 0  9995","TLE_LINE2":"2 45432  87.5645  47.0357 0025074 330.2647 252.3446 14.89681772  1778"},{"CCSDS_OMM_VERS":"2.0","COMMENT":"GENERATED VIA SPACE-TRACK.ORG API","CREATION_DATE":"2021-01-07T06:36:09","ORIGINATOR":"18 SPCS","OBJECT_NAME":"ONEWEB-0027","OBJECT_ID":"2020-020J","CENTER_NAME":"EARTH","REF_FRAME":"TEME","TIME_SYSTEM":"UTC","MEAN_ELEMENT_THEORY":"SGP4","EPOCH":"2021-01-07T06:00:00.999648","MEAN_MOTION":"14.89737836","ECCENTRICITY":"0.00250620","INCLINATION":"87.5645","RA_OF_ASC_NODE":"46.9319","ARG_OF_PERICENTER":"328.7435","MEAN_ANOMALY":"240.2946","EPHEMERIS_TYPE":"0","CLASSIFICATION_TYPE":"U","NORAD_CAT_ID":"45432","ELEMENT_SET_NO":"999","REV_AT_EPOCH":"4359","BSTAR":"-0.00635600000000","MEAN_MOTION_DOT":"-0.00060607","MEAN_MOTION_DDOT":"0.0000000000000","SEMIMAJOR_AXIS":"6976.891","PERIOD":"96.661","APOAPSIS":"616.241","PERIAPSIS":"581.270","OBJECT_TYPE":"PAYLOAD","RCS_SIZE":"MEDIUM","COUNTRY_CODE":"UK","LAUNCH_DATE":"2020-03-21","SITE":"TTMTR","DECAY_DATE":null,"FILE":"2917563","GP_ID":"169049885","TLE_LINE0":"0 ONEWEB-0027","TLE_LINE1":"1 45432U 20020J   21007.25001157 -.00060607  00000-0 -63560-2 0  9996","TLE_LINE2":"2 45432  87.5645  46.9319 0025062 328.7435 240.2946 14.89737836 43598"},{"CCSDS_OMM_VERS":"2.0","COMMENT":"GENERATED VIA SPACE-TRACK.ORG API","CREATION_DATE":"2021-01-07T19:13:41","ORIGINATOR":"18 SPCS","OBJECT_NAME":"ONEWEB-0027","OBJECT_ID":"2020-020J","CENTER_NAME":"EARTH","REF_FRAME":"TEME","TIME_SYSTEM":"UTC","MEAN_ELEMENT_THEORY":"SGP4","EPOCH":"2021-01-07T14:00:01.000224","MEAN_MOTION":"14.89702367","ECCENTRICITY":"0.00250770","INCLINATION":"87.5645","RA_OF_ASC_NODE":"46.8286","ARG_OF_PERICENTER":"327.6671","MEAN_ANOMALY":"227.8261","EPHEMERIS_TYPE":"0","CLASSIFICATION_TYPE":"U","NORAD_CAT_ID":"45432","ELEMENT_SET_NO":"999","REV_AT_EPOCH":"177","BSTAR":"0.00231380000000","MEAN_MOTION_DOT":"0.00022339","MEAN_MOTION_DDOT":"0.0000000000000","SEMIMAJOR_AXIS":"6977.001","PERIOD":"96.663","APOAPSIS":"616.363","PERIAPSIS":"581.370","OBJECT_TYPE":"PAYLOAD","RCS_SIZE":"MEDIUM","COUNTRY_CODE":"UK","LAUNCH_DATE":"2020-03-21","SITE":"TTMTR","DECAY_DATE":null,"FILE":"2918110","GP_ID":"169082218","TLE_LINE0":"0 ONEWEB-0027","TLE_LINE1":"1 45432U 20020J   21007.58334491  .00022339  00000-0  23138-2 0  9997","TLE_LINE2":"2 45432  87.5645  46.8286 0025077 327.6671 227.8261 14.89702367  1772"},{"CCSDS_OMM_VERS":"2.0","COMMENT":"GENERATED VIA SPACE-TRACK.ORG API","CREATION_DATE":"2021-01-07T21:26:10","ORIGINATOR":"18 SPCS","OBJECT_NAME":"ONEWEB-0027","OBJECT_ID":"2020-020J","CENTER_NAME":"EARTH","REF_FRAME":"TEME","TIME_SYSTEM":"UTC","MEAN_ELEMENT_THEORY":"SGP4","EPOCH":"2021-01-07T20:00:01.999872","MEAN_MOTION":"14.89711363","ECCENTRICITY":"0.00249720","INCLINATION":"87.5645","RA_OF_ASC_NODE":"46.7526","ARG_OF_PERICENTER":"326.7943","MEAN_ANOMALY":"128.6006","EPHEMERIS_TYPE":"0","CLASSIFICATION_TYPE":"U","NORAD_CAT_ID":"45432","ELEMENT_SET_NO":"999","REV_AT_EPOCH":"4368","BSTAR":"-0.00204660000000","MEAN_MOTION_DOT":"-0.00019595","MEAN_MOTION_DDOT":"0.0000000000000","SEMIMAJOR_AXIS":"6976.973","PERIOD":"96.663","APOAPSIS":"616.261","PERIAPSIS":"581.415","OBJECT_TYPE":"PAYLOAD","RCS_SIZE":"MEDIUM","COUNTRY_CODE":"UK","LAUNCH_DATE":"2020-03-21","SITE":"TTMTR","DECAY_DATE":null,"FILE":"2918252","GP_ID":"169087653","TLE_LINE0":"0 ONEWEB-0027","TLE_LINE1":"1 45432U 20020J   21007.83335648 -.00019595  00000-0 -20466-2 0  9993","TLE_LINE2":"2 45432  87.5645  46.7526 0024972 326.7943 128.6006 14.89711363 43680"},{"CCSDS_OMM_VERS":"2.0","COMMENT":"GENERATED VIA SPACE-TRACK.ORG API","CREATION_DATE":"2021-01-08T05:33:55","ORIGINATOR":"18 SPCS","OBJECT_NAME":"ONEWEB-0027","OBJECT_ID":"2020-020J","CENTER_NAME":"EARTH","REF_FRAME":"TEME","TIME_SYSTEM":"UTC","MEAN_ELEMENT_THEORY":"SGP4","EPOCH":"2021-01-08T00:00:00.999648","MEAN_MOTION":"14.89676805","ECCENTRICITY":"0.00249630","INCLINATION":"87.5645","RA_OF_ASC_NODE":"46.7013","ARG_OF_PERICENTER":"326.0886","MEAN_ANOMALY":"302.4742","EPHEMERIS_TYPE":"0","CLASSIFICATION_TYPE":"U","NORAD_CAT_ID":"45432","ELEMENT_SET_NO":"999","REV_AT_EPOCH":"177","BSTAR":"0.00664950000000","MEAN_MOTION_DOT":"0.00064484","MEAN_MOTION_DDOT":"0.0000000000000","SEMIMAJOR_AXIS":"6977.081","PERIOD":"96.665","APOAPSIS":"616.363","PERIAPSIS":"581.529","OBJECT_TYPE":"PAYLOAD","RCS_SIZE":"MEDIUM","COUNTRY_CODE":"UK","LAUNCH_DATE":"2020-03-21","SITE":"TTMTR","DECAY_DATE":null,"FILE":"2918659","GP_ID":"169116169","TLE_LINE0":"0 ONEWEB-0027","TLE_LINE1":"1 45432U 20020J   21008.00001157  .00064484  00000-0  66495-2 0  9995","TLE_LINE2":"2 45432  87.5645  46.7013 0024963 326.0886 302.4742 14.89676805  1774"},{"CCSDS_OMM_VERS":"2.0","COMMENT":"GENERATED VIA SPACE-TRACK.ORG API","CREATION_DATE":"2021-01-08T19:55:31","ORIGINATOR":"18 SPCS","OBJECT_NAME":"ONEWEB-0027","OBJECT_ID":"2020-020J","CENTER_NAME":"EARTH","REF_FRAME":"TEME","TIME_SYSTEM":"UTC","MEAN_ELEMENT_THEORY":"SGP4","EPOCH":"2021-01-08T14:00:01.000224","MEAN_MOTION":"14.89703034","ECCENTRICITY":"0.00249890","INCLINATION":"87.5643","RA_OF_ASC_NODE":"46.5198","ARG_OF_PERICENTER":"323.9458","MEAN_ANOMALY":"190.8902","EPHEMERIS_TYPE":"0","CLASSIFICATION_TYPE":"U","NORAD_CAT_ID":"45432","ELEMENT_SET_NO":"999","REV_AT_EPOCH":"176","BSTAR":"0.00213790000000","MEAN_MOTION_DOT":"0.00020637","MEAN_MOTION_DDOT":"0.0000000000000","SEMIMAJOR_AXIS":"6976.999","PERIOD":"96.663","APOAPSIS":"616.299","PERIAPSIS":"581.429","OBJECT_TYPE":"PAYLOAD","RCS_SIZE":"MEDIUM","COUNTRY_CODE":"UK","LAUNCH_DATE":"2020-03-21","SITE":"TTMTR","DECAY_DATE":null,"FILE":"2919399","GP_ID":"169152790","TLE_LINE0":"0 ONEWEB-0027","TLE_LINE1":"1 45432U 20020J   21008.58334491  .00020637  00000-0  21379-2 0  9992","TLE_LINE2":"2 45432  87.5643  46.5198 0024989 323.9458 190.8902 14.89703034  1764"},{"CCSDS_OMM_VERS":"2.0","COMMENT":"GENERATED VIA SPACE-TRACK.ORG API","CREATION_DATE":"2021-01-08T14:36:10","ORIGINATOR":"18 SPCS","OBJECT_NAME":"ONEWEB-0027","OBJECT_ID":"2020-020J","CENTER_NAME":"EARTH","REF_FRAME":"TEME","TIME_SYSTEM":"UTC","MEAN_ELEMENT_THEORY":"SGP4","EPOCH":"2021-01-08T14:00:01.000224","MEAN_MOTION":"14.89703034","ECCENTRICITY":"0.00249890","INCLINATION":"87.5643","RA_OF_ASC_NODE":"46.5198","ARG_OF_PERICENTER":"323.9458","MEAN_ANOMALY":"190.8902","EPHEMERIS_TYPE":"0","CLASSIFICATION_TYPE":"U","NORAD_CAT_ID":"45432","ELEMENT_SET_NO":"999","REV_AT_EPOCH":"4379","BSTAR":"0.00213790000000","MEAN_MOTION_DOT":"0.00020637","MEAN_MOTION_DDOT":"0.0000000000000","SEMIMAJOR_AXIS":"6976.999","PERIOD":"96.663","APOAPSIS":"616.299","PERIAPSIS":"581.429","OBJECT_TYPE":"PAYLOAD","RCS_SIZE":"MEDIUM","COUNTRY_CODE":"UK","LAUNCH_DATE":"2020-03-21","SITE":"TTMTR","DECAY_DATE":null,"FILE":"2919156","GP_ID":"169127925","TLE_LINE0":"0 ONEWEB-0027","TLE_LINE1":"1 45432U 20020J   21008.58334491  .00020637  00000-0  21379-2 0  9992","TLE_LINE2":"2 45432  87.5643  46.5198 0024989 323.9458 190.8902 14.89703034 43793"}]